NORAD_CAT_ID,OBJECT_NAME,OBJECT_TYPE,EPOCH,MEAN_MOTION,ECCENTRICITY,INCLINATION,RA_OF_ASC_NODE,ARG_OF_PERICENTER,MEAN_ANOMALY,BSTAR,MEAN_MOTION_DOT,MEAN_MOTION_DDOT,TLE_LINE0,TLE_LINE1,TLE_LINE2,SEMIMAJOR_AXIS,PERIOD,APOGEE,PERIGEE,DECAYED
52844.0,STARLINK-4208,PAYLOAD,2023-03-24 19:54:59,15.08935855,0.0001464,53.2154,206.285,123.2109,236.9023,0.0018756,0.00029767,0.0,0 STARLINK-4208,1 52844U 22062Q   23083.82985188  .00029767  00000-0  18756-2 0  9990,2 52844  53.2154 206.2850 0001464 123.2109 236.9023 15.08935855 42618,6917.587,95.431,540.465,538.44,0.0
52844.0,STARLINK-4208,PAYLOAD,2023-03-25 00:41:10,15.08816114,0.0002128,53.216,205.3973,131.4979,228.6196,-0.0028324,-0.00045056,0.0,0 STARLINK-4208,1 52844U 22062Q   23084.02858955 -.00045056  00000-0 -28324-2 0  9997,2 52844  53.2160 205.3973 0002128 131.4979 228.6196 15.08816114 43138,6917.953,95.439,541.291,538.346,0.0
52844.0,STARLINK-4208,PAYLOAD,2023-03-25 11:48:53,15.08811515,0.0002848,53.2159,203.3178,117.7882,242.3399,-0.0011189,-0.00018039,0.0,0 STARLINK-4208,1 52844U 22062Q   23084.49228441 -.00018039  00000-0 -11189-2 0  9991,2 52844  53.2159 203.3178 0002848 117.7882 242.3399 15.08811515 43206,6917.967,95.439,541.803,537.862,0.0
52844.0,STARLINK-4208,PAYLOAD,2023-03-25 18:10:26,15.08810765,0.0001933,53.2161,202.1266,103.8625,256.2582,0.00019161,2.76e-05,0.0,0 STARLINK-4208,1 52844U 22062Q   23084.75725092  .00002760  00000-0  19161-3 0  9995,2 52844  53.2161 202.1266 0001933 103.8625 256.2582 15.08810765 42752,6917.97,95.439,541.172,538.498,0.0
52844.0,STARLINK-4208,PAYLOAD,2023-03-26 06:53:33,15.08803671,0.0001549,53.216,199.7482,93.6532,266.4637,0.0010233,0.00016019,0.0,0 STARLINK-4208,1 52844U 22062Q   23085.28718805  .00016019  00000-0  10233-2 0  9990,2 52844  53.2160 199.7482 0001549  93.6532 266.4637 15.08803671 43324,6917.991,95.44,540.928,538.785,0.0
52844.0,STARLINK-4208,PAYLOAD,2023-03-26 19:36:38,15.08828165,0.0001214,53.215,197.3642,137.1687,222.94,0.0011485,0.00018032,0.0,0 STARLINK-4208,1 52844U 22062Q   23085.81710750  .00018032  00000-0  11485-2 0  9997,2 52844  53.2150 197.3642 0001214 137.1687 222.9400 15.08828165 43408,6917.917,95.438,540.621,538.942,0.0
52844.0,STARLINK-4208,PAYLOAD,2023-03-27 13:05:52,15.08847965,0.0001647,53.215,194.0939,102.3002,257.8175,0.00066916,0.0001038,0.0,0 STARLINK-4208,1 52844U 22062Q   23086.54574693  .00010380  00000-0  66916-3 0  9990,2 52844  53.2150 194.0939 0001647 102.3002 257.8175 15.08847965 43029,6917.856,95.437,540.86,538.582,0.0
52844.0,STARLINK-4208,PAYLOAD,2023-03-27 19:27:24,15.08879802,0.0001507,53.2143,192.9059,96.3333,263.7831,0.0017997,0.00028502,0.0,0 STARLINK-4208,1 52844U 22062Q   23086.81069969  .00028502  00000-0  17997-2 0  9994,2 52844  53.2143 192.9059 0001507  96.3333 263.7831 15.08879802 43553,6917.759,95.435,540.666,538.581,0.0
52844.0,STARLINK-4208,PAYLOAD,2023-03-28 00:13:33,15.08849878,3.1e-05,53.2142,192.018,201.5141,158.5838,-0.0002957,-4.992e-05,0.0,0 STARLINK-4208,1 52844U 22062Q   23087.00941852 -.00004992  00000-0 -29570-3 0  9996,2 52844  53.2142 192.0180 0000310 201.5141 158.5838 15.08849878 43587,6917.85,95.437,539.93,539.501,0.0
52844.0,STARLINK-4208,PAYLOAD,2023-03-28 12:56:39,15.08861007,0.0001311,53.2137,189.6357,97.6619,262.4522,0.0019908,0.00031556,0.0,0 STARLINK-4208,1 52844U 22062Q   23087.53934160  .00031556  00000-0  19908-2 0  9995,2 52844  53.2137 189.6357 0001311  97.6619 262.4522 15.08861007 43173,6917.816,95.436,540.588,538.774,0.0
52844.0,STARLINK-4208,PAYLOAD,2023-03-28 16:07:25,15.08866225,0.0001332,53.2138,189.0413,95.1818,264.9326,0.0024464,0.0003889,0.0,0 STARLINK-4208,1 52844U 22062Q   23087.67182075  .00038890  00000-0  24464-2 0  9991,2 52844  53.2138 189.0413 0001332  95.1818 264.9326 15.08866225 43196,6917.8,95.436,540.587,538.744,0.0
52844.0,STARLINK-4208,PAYLOAD,2023-03-29 00:04:21,15.08846938,0.0001622,53.215,187.5561,75.6521,284.4651,0.0010919,0.00017136,0.0,0 STARLINK-4208,1 52844U 22062Q   23088.00302461  .00017136  00000-0  10919-2 0  9992,2 52844  53.2150 187.5561 0001622  75.6521 284.4651 15.08846938 43730,6917.859,95.437,540.846,538.602,0.0
52844.0,STARLINK-4208,PAYLOAD,2023-03-29 12:47:26,15.08862978,0.0001409,53.2145,185.1759,80.702,279.4132,0.0024515,0.00038968,0.0,0 STARLINK-4208,1 52844U 22062Q   23088.53294272  .00038968  00000-0  24515-2 0  9993,2 52844  53.2145 185.1759 0001409  80.7020 279.4132 15.08862978 43326,6917.81,95.436,540.65,538.7,0.0
52844.0,STARLINK-4208,PAYLOAD,2023-03-29 17:33:35,15.08867776,0.000187,53.2158,184.2843,80.0566,280.0637,0.0017252,0.00027296,0.0,0 STARLINK-4208,1 52844U 22062Q   23088.73166097  .00027296  00000-0  17252-2 0  9990,2 52844  53.2158 184.2843 0001870  80.0566 280.0637 15.08867776 43356,6917.795,95.436,540.954,538.367,0.0
52844.0,STARLINK-4208,PAYLOAD,2023-03-30 06:16:40,15.0884648,0.0001152,53.2148,181.9053,102.0614,258.0507,0.0016112,0.00025452,0.0,0 STARLINK-4208,1 52844U 22062Q   23089.26158386  .00025452  00000-0  16112-2 0  9997,2 52844  53.2148 181.9053 0001152 102.0614 258.0507 15.08846480 43927,6917.861,95.437,540.523,538.929,0.0
52844.0,STARLINK-4208,PAYLOAD,2023-03-30 12:38:13,15.08853288,0.0001108,53.2151,180.7156,91.6637,268.4482,0.0021593,0.00034257,0.0,0 STARLINK-4208,1 52844U 22062Q   23089.52654356  .00034257  00000-0  21593-2 0  9996,2 52844  53.2151 180.7156 0001108  91.6637 268.4482 15.08853288 43472,6917.84,95.437,540.471,538.938,0.0
52844.0,STARLINK-4208,PAYLOAD,2023-03-31 06:07:27,15.08859949,0.0001322,53.2147,177.4448,87.9943,272.1201,0.0016033,0.00025335,0.0,0 STARLINK-4208,1 52844U 22062Q   23090.25518271  .00025335  00000-0  16033-2 0  9993,2 52844  53.2147 177.4448 0001322  87.9943 272.1201 15.08859949 44078,6917.819,95.436,540.599,538.77,0.0
52844.0,STARLINK-4208,PAYLOAD,2023-04-01 05:58:15,15.08841895,0.0002358,53.2157,172.9833,83.8927,276.2334,0.0010803,0.00016948,0.0,0 STARLINK-4208,1 52844U 22062Q   23091.24878691  .00016948  00000-0  10803-2 0  9997,2 52844  53.2157 172.9833 0002358  83.8927 276.2334 15.08841895 44224,6917.875,95.437,541.371,538.108,0.0
52844.0,STARLINK-4208,PAYLOAD,2023-04-01 10:44:24,15.08827209,0.0001128,53.2154,172.0913,97.3609,262.7512,0.0011631,0.00018265,0.0,0 STARLINK-4208,1 52844U 22062Q   23091.44750911  .00018265  00000-0  11631-2 0  9997,2 52844  53.2154 172.0913 0001128  97.3609 262.7512 15.08827209 44256,6917.919,95.438,540.565,539.004,0.0
52844.0,STARLINK-4208,PAYLOAD,2023-04-01 21:52:06,15.08838197,6.46e-05,53.2151,170.0115,185.2853,174.8133,0.0011914,0.00018723,0.0,0 STARLINK-4208,1 52844U 22062Q   23091.91118724  .00018723  00000-0  11914-2 0  9992,2 52844  53.2151 170.0115 0000646 185.2853 174.8133 15.08838197 43830,6917.886,95.438,540.198,539.304,0.0
52844.0,STARLINK-4208,PAYLOAD,2023-04-02 13:45:58,15.08864146,0.0001114,53.2155,167.0355,88.521,271.591,0.0019464,0.00030845,0.0,0 STARLINK-4208,1 52844U 22062Q   23092.57359017  .00030845  00000-0  19464-2 0  9994,2 52844  53.2155 167.0355 0001114  88.5210 271.5910 15.08864146 44426,6917.807,95.436,540.442,538.901,0.0
52844.0,STARLINK-4208,PAYLOAD,2023-04-02 21:42:53,15.08844461,0.0001342,53.2154,165.5513,104.9141,255.1999,0.00059435,9.185e-05,0.0,0 STARLINK-4208,1 52844U 22062Q   23092.90479111  .00009185  00000-0  59435-3 0  9995,2 52844  53.2154 165.5513 0001342 104.9141 255.1999 15.08844461 43986,6917.867,95.437,540.66,538.803,0.0
52844.0,STARLINK-4208,PAYLOAD,2023-04-03 13:36:45,15.08848975,0.0001309,53.2154,162.5785,97.9331,262.1809,0.0010091,0.00015812,0.0,0 STARLINK-4208,1 52844U 22062Q   23093.56719044  .00015812  00000-0  10091-2 0  9998,2 52844  53.2154 162.5785 0001309  97.9331 262.1809 15.08848975 44083,6917.853,95.437,540.624,538.812,0.0
52844.0,STARLINK-4208,PAYLOAD,2023-04-03 16:47:31,15.08862516,0.0001135,53.2147,161.9812,101.4034,258.7085,0.0011059,0.00017367,0.0,0 STARLINK-4208,1 52844U 22062Q   23093.69966686  .00017367  00000-0  11059-2 0  9990,2 52844  53.2147 161.9812 0001135 101.4034 258.7085 15.08862516 44104,6917.812,95.436,540.462,538.891,0.0
52844.0,STARLINK-4208,PAYLOAD,2023-04-04 03:55:13,15.08847531,9.44e-05,53.214,159.9009,123.4882,236.62,0.001103,0.00017313,0.0,0 STARLINK-4208,1 52844U 22062Q   23094.16334865  .00017313  00000-0  11030-2 0  9991,2 52844  53.2140 159.9009 0000944 123.4882 236.6200 15.08847531 44669,6917.857,95.437,540.375,539.069,0.0
52844.0,STARLINK-4208,PAYLOAD,2023-04-04 11:52:08,15.08858268,0.0001118,53.2143,158.4139,105.3565,254.7551,0.0014452,0.00022799,0.0,0 STARLINK-4208,1 52844U 22062Q   23094.49454667  .00022799  00000-0  14452-2 0  9995,2 52844  53.2143 158.4139 0001118 105.3565 254.7551 15.08858268 44222,6917.825,95.436,540.463,538.916,0.0
52844.0,STARLINK-4208,PAYLOAD,2023-04-04 16:38:17,15.08865172,0.000109,53.2136,157.5214,103.8449,256.2664,0.0014078,0.00022204,0.0,0 STARLINK-4208,1 52844U 22062Q   23094.69326381  .00022204  00000-0  14078-2 0  9993,2 52844  53.2136 157.5214 0001090 103.8449 256.2664 15.08865172 44258,6917.803,95.436,540.422,538.914,0.0
52844.0,STARLINK-4208,PAYLOAD,2023-04-05 03:46:00,15.08828186,6.42e-05,53.215,155.4409,64.7184,295.3874,0.0003408,5.139e-05,0.0,0 STARLINK-4208,1 52844U 22062Q   23095.15695119  .00005139  00000-0  34080-3 0  9997,2 52844  53.2150 155.4409 0000642  64.7184 295.3874 15.08828186 44813,6917.916,95.438,540.226,539.337,0.0
52844.0,STARLINK-4208,PAYLOAD,2023-04-05 13:18:19,15.08841917,0.00012,53.2135,153.6558,82.0759,278.0369,0.0014305,0.00022553,0.0,0 STARLINK-4208,1 52844U 22062Q   23095.55439231  .00022553  00000-0  14305-2 0  9998,2 52844  53.2135 153.6558 0001200  82.0759 278.0369 15.08841917 44389,6917.875,95.437,540.57,538.909,0.0
52844.0,STARLINK-4208,PAYLOAD,2023-04-06 08:22:57,15.08845024,0.0001459,53.2136,150.0874,85.054,275.0619,0.00056977,8.793e-05,0.0,0 STARLINK-4208,1 52844U 22062Q   23096.34927378  .00008793  00000-0  56977-3 0  9992,2 52844  53.2136 150.0874 0001459  85.0540 275.0619 15.08845024 44994,6917.865,95.437,540.739,538.721,0.0
